start=new Date('2022-10-16T00:00:00.000Z').valueOf();
sats=[{"EPOCH":"2022-10-15T17:38:53.874528","MEAN_MOTION_DOT":"0.00002713","ARG_OF_PERICENTER":"93.2091","SITE":"AFETR","RA_OF_ASC_NODE":"122.4846","MEAN_ANOMALY":"266.9050","FILE":"3615679","EPHEMERIS_TYPE":"0","SEMIMAJOR_AXIS":"6925.340","PERIOD":"95.592","CLASSIFICATION_TYPE":"U","ECCENTRICITY":"0.00013330","APOAPSIS":"548.129","TIME_SYSTEM":"UTC","PERIAPSIS":"546.282","COUNTRY_CODE":"US","REV_AT_EPOCH":"10977","DECAY_DATE":null,"TLE_LINE2":"2 46782  53.0535 122.4846 0001333  93.2091 266.9050 15.06402661109774","REF_FRAME":"TEME","OBJECT_NAME":"STARLINK-1835","TLE_LINE1":"1 46782U 20074AV  22288.73534577  .00002713  00000-0  20093-3 0  9993","RCS_SIZE":"LARGE","CENTER_NAME":"EARTH","OBJECT_TYPE":"PAYLOAD","LAUNCH_DATE":"2020-10-24","MEAN_MOTION":"15.06402661","GP_ID":"215245933","INCLINATION":"53.0535","MEAN_ELEMENT_THEORY":"SGP4","OBJECT_ID":"2020-074AV","ELEMENT_SET_NO":"999","NORAD_CAT_ID":"46782","BSTAR":"0.00020093000000","MEAN_MOTION_DDOT":"0.0000000000000"},{"EPOCH":"2022-10-15T19:35:39.904512","ARG_OF_PERICENTER":"90.8913","MEAN_MOTION_DOT":"0.00000303","SITE":"AFETR","MEAN_ANOMALY":"269.2230","RA_OF_ASC_NODE":"122.1209","FILE":"3615679","SEMIMAJOR_AXIS":"6925.345","EPHEMERIS_TYPE":"0","PERIOD":"95.592","CLASSIFICATION_TYPE":"U","ECCENTRICITY":"0.00013480","APOAPSIS":"548.144","PERIAPSIS":"546.277","TIME_SYSTEM":"UTC","COUNTRY_CODE":"US","REF_FRAME":"TEME","TLE_LINE2":"2 46783  53.0534 122.1209 0001348  90.8913 269.2230 15.06401143109787","REV_AT_EPOCH":"10978","DECAY_DATE":null,"OBJECT_NAME":"STARLINK-1851","TLE_LINE1":"1 46783U 20074AW  22288.81643408  .00000303  00000-0  39253-4 0  9999","RCS_SIZE":"LARGE","CENTER_NAME":"EARTH","OBJECT_TYPE":"PAYLOAD","LAUNCH_DATE":"2020-10-24","GP_ID":"215247185","MEAN_MOTION":"15.06401143","INCLINATION":"53.0534","MEAN_ELEMENT_THEORY":"SGP4","OBJECT_ID":"2020-074AW","ELEMENT_SET_NO":"999","MEAN_MOTION_DDOT":"0.0000000000000","BSTAR":"0.00003925300000","NORAD_CAT_ID":"46783"},{"APOAPSIS":"548.151","CLASSIFICATION_TYPE":"U","PERIOD":"95.592","ECCENTRICITY":"0.00013800","FILE":"3615679","RA_OF_ASC_NODE":"122.3780","MEAN_ANOMALY":"262.2362","EPHEMERIS_TYPE":"0","SEMIMAJOR_AXIS":"6925.330","MEAN_MOTION_DOT":"0.00001703","ARG_OF_PERICENTER":"97.8784","SITE":"AFETR","EPOCH":"2022-10-15T18:04:04.243296","ELEMENT_SET_NO":"999","OBJECT_ID":"2020-074AX","NORAD_CAT_ID":"46784","BSTAR":"0.00013315000000","MEAN_MOTION_DDOT":"0.0000000000000","MEAN_MOTION":"15.06406116","GP_ID":"215247436","MEAN_ELEMENT_THEORY":"SGP4","INCLINATION":"53.0535","CENTER_NAME":"EARTH","RCS_SIZE":"LARGE","LAUNCH_DATE":"2020-10-24","OBJECT_TYPE":"PAYLOAD","COUNTRY_CODE":"US","PERIAPSIS":"546.239","TIME_SYSTEM":"UTC","TLE_LINE1":"1 46784U 20074AX  22288.75282689  .00001703  00000-0  13315-3 0  9998","OBJECT_NAME":"STARLINK-1882","DECAY_DATE":null,"REV_AT_EPOCH":"10977","REF_FRAME":"TEME","TLE_LINE2":"2 46784  53.0535 122.3780 0001380  97.8784 262.2362 15.06406116109777"},{"OBJECT_NAME":"STARLINK-1883","TLE_LINE1":"1 46785U 20074AY  22288.73903082  .00000556  00000-0  56193-4 0  9991","REV_AT_EPOCH":"10977","DECAY_DATE":null,"TLE_LINE2":"2 46785  53.0529 122.4596 0001385 109.5856 250.5283 15.06402380109774","REF_FRAME":"TEME","COUNTRY_CODE":"US","PERIAPSIS":"546.247","TIME_SYSTEM":"UTC","LAUNCH_DATE":"2020-10-24","OBJECT_TYPE":"PAYLOAD","RCS_SIZE":"LARGE","CENTER_NAME":"EARTH","MEAN_ELEMENT_THEORY":"SGP4","INCLINATION":"53.0529","MEAN_MOTION":"15.06402380","GP_ID":"215246184","NORAD_CAT_ID":"46785","BSTAR":"0.00005619300000","MEAN_MOTION_DDOT":"0.0000000000000","ELEMENT_SET_NO":"999","OBJECT_ID":"2020-074AY","EPOCH":"2022-10-15T17:44:12.262848","SITE":"AFETR","MEAN_MOTION_DOT":"0.00000556","ARG_OF_PERICENTER":"109.5856","EPHEMERIS_TYPE":"0","SEMIMAJOR_AXIS":"6925.341","FILE":"3615679","RA_OF_ASC_NODE":"122.4596","MEAN_ANOMALY":"250.5283","APOAPSIS":"548.165","PERIOD":"95.592","CLASSIFICATION_TYPE":"U","ECCENTRICITY":"0.00013850"},{"PERIOD":"95.593","CLASSIFICATION_TYPE":"U","ECCENTRICITY":"0.00013690","APOAPSIS":"548.182","EPHEMERIS_TYPE":"0","SEMIMAJOR_AXIS":"6925.369","RA_OF_ASC_NODE":"102.5645","MEAN_ANOMALY":"247.4566","FILE":"3615679","SITE":"AFETR","MEAN_MOTION_DOT":"-0.00002151","ARG_OF_PERICENTER":"112.6568","EPOCH":"2022-10-15T17:15:01.201824","NORAD_CAT_ID":"46786","MEAN_MOTION_DDOT":"0.0000000000000","BSTAR":"-0.00012556000000","OBJECT_ID":"2020-074AZ","ELEMENT_SET_NO":"999","INCLINATION":"53.0531","MEAN_ELEMENT_THEORY":"SGP4","MEAN_MOTION":"15.06393404","GP_ID":"215246434","OBJECT_TYPE":"PAYLOAD","LAUNCH_DATE":"2020-10-24","CENTER_NAME":"EARTH","RCS_SIZE":"LARGE","DECAY_DATE":null,"REV_AT_EPOCH":"11005","TLE_LINE2":"2 46786  53.0531 102.5645 0001369 112.6568 247.4566 15.06393404110057","REF_FRAME":"TEME","TLE_LINE1":"1 46786U 20074AZ  22288.71876391 -.00002151  00000-0 -12556-3 0  9991","OBJECT_NAME":"STARLINK-1893","TIME_SYSTEM":"UTC","PERIAPSIS":"546.286","COUNTRY_CODE":"US"},{"EPOCH":"2022-10-15T17:04:23.232000","SITE":"AFETR","MEAN_MOTION_DOT":"0.00001449","ARG_OF_PERICENTER":"107.3745","EPHEMERIS_TYPE":"0","SEMIMAJOR_AXIS":"6925.315","FILE":"3615679","RA_OF_ASC_NODE":"102.5856","MEAN_ANOMALY":"252.7397","APOAPSIS":"548.150","CLASSIFICATION_TYPE":"U","PERIOD":"95.591","ECCENTRICITY":"0.00014000","OBJECT_NAME":"STARLINK-1899","TLE_LINE1":"1 46787U 20074BA  22288.71138000  .00001449  00000-0  11611-3 0  9998","DECAY_DATE":null,"REV_AT_EPOCH":"11005","TLE_LINE2":"2 46787  53.0539 102.5856 0001400 107.3745 252.7397 15.06410825110052","REF_FRAME":"TEME","COUNTRY_CODE":"US","TIME_SYSTEM":"UTC","PERIAPSIS":"546.211","LAUNCH_DATE":"2020-10-24","OBJECT_TYPE":"PAYLOAD","RCS_SIZE":"LARGE","CENTER_NAME":"EARTH","MEAN_ELEMENT_THEORY":"SGP4","INCLINATION":"53.0539","MEAN_MOTION":"15.06410825","GP_ID":"215246685","NORAD_CAT_ID":"46787","BSTAR":"0.00011611000000","MEAN_MOTION_DDOT":"0.0000000000000","ELEMENT_SET_NO":"999","OBJECT_ID":"2020-074BA"},{"MEAN_MOTION":"15.06396872","GP_ID":"215246936","MEAN_ELEMENT_THEORY":"SGP4","INCLINATION":"53.0532","ELEMENT_SET_NO":"999","OBJECT_ID":"2020-074BB","NORAD_CAT_ID":"46788","MEAN_MOTION_DDOT":"0.0000000000000","BSTAR":"0.00002797500000","COUNTRY_CODE":"US","TIME_SYSTEM":"UTC","PERIAPSIS":"546.263","TLE_LINE1":"1 46788U 20074BB  22288.70402301  .00000135  00000-0  27975-4 0  9998","OBJECT_NAME":"STARLINK-1929","REV_AT_EPOCH":"11005","DECAY_DATE":null,"REF_FRAME":"TEME","TLE_LINE2":"2 46788  53.0532 102.6171 0001387  85.2144 274.9004 15.06396872110054","CENTER_NAME":"EARTH","RCS_SIZE":"LARGE","LAUNCH_DATE":"2020-10-24","OBJECT_TYPE":"PAYLOAD","FILE":"3615679","RA_OF_ASC_NODE":"102.6171","MEAN_ANOMALY":"274.9004","EPHEMERIS_TYPE":"0","SEMIMAJOR_AXIS":"6925.358","APOAPSIS":"548.184","ECCENTRICITY":"0.00013870","PERIOD":"95.592","CLASSIFICATION_TYPE":"U","EPOCH":"2022-10-15T16:53:47.588064","MEAN_MOTION_DOT":"0.00000135","ARG_OF_PERICENTER":"85.2144","SITE":"AFETR"},{"OBJECT_ID":"2020-074BC","ELEMENT_SET_NO":"999","MEAN_MOTION_DDOT":"0.0000000000000","BSTAR":"-0.00004781700000","NORAD_CAT_ID":"46789","GP_ID":"215245684","MEAN_MOTION":"15.06396442","INCLINATION":"53.0537","MEAN_ELEMENT_THEORY":"SGP4","RCS_SIZE":"LARGE","CENTER_NAME":"EARTH","OBJECT_TYPE":"PAYLOAD","LAUNCH_DATE":"2020-10-24","TIME_SYSTEM":"UTC","PERIAPSIS":"546.314","COUNTRY_CODE":"US","REF_FRAME":"TEME","TLE_LINE2":"2 46789  53.0537 132.0914 0001315  80.0749 280.0388 15.06396442109657","DECAY_DATE":null,"REV_AT_EPOCH":"10965","OBJECT_NAME":"STARLINK-1930","TLE_LINE1":"1 46789U 20074BC  22288.85977083 -.00000993  00000-0 -47817-4 0  9990","ECCENTRICITY":"0.00013150","PERIOD":"95.592","CLASSIFICATION_TYPE":"U","APOAPSIS":"548.135","MEAN_ANOMALY":"280.0388","RA_OF_ASC_NODE":"132.0914","FILE":"3615679","SEMIMAJOR_AXIS":"6925.359","EPHEMERIS_TYPE":"0","ARG_OF_PERICENTER":"80.0749","MEAN_MOTION_DOT":"-0.00000993","SITE":"AFETR","EPOCH":"2022-10-15T20:38:04.199712"},{"MEAN_MOTION_DOT":"0.00000355","ARG_OF_PERICENTER":"112.7850","SITE":"AFETR","EPOCH":"2022-10-15T19:44:57.931872","PERIOD":"95.592","ECCENTRICITY":"0.00014850","CLASSIFICATION_TYPE":"U","APOAPSIS":"548.234","RA_OF_ASC_NODE":"132.0925","MEAN_ANOMALY":"247.3296","FILE":"3615679","EPHEMERIS_TYPE":"0","SEMIMAJOR_AXIS":"6925.341","RCS_SIZE":"LARGE","CENTER_NAME":"EARTH","OBJECT_TYPE":"PAYLOAD","LAUNCH_DATE":"2020-10-24","PERIAPSIS":"546.177","TIME_SYSTEM":"UTC","COUNTRY_CODE":"US","REV_AT_EPOCH":"10964","DECAY_DATE":null,"REF_FRAME":"TEME","TLE_LINE2":"2 46790  53.0517 132.0925 0001485 112.7850 247.3296 15.06402599109647","TLE_LINE1":"1 46790U 20074BD  22288.82289273  .00000355  00000-0  42718-4 0  9991","OBJECT_NAME":"STARLINK-1931","OBJECT_ID":"2020-074BD","ELEMENT_SET_NO":"999","NORAD_CAT_ID":"46790","MEAN_MOTION_DDOT":"0.0000000000000","BSTAR":"0.00004271800000","MEAN_MOTION":"15.06402599","GP_ID":"215245934","INCLINATION":"53.0517","MEAN_ELEMENT_THEORY":"SGP4"},{"TIME_SYSTEM":"UTC","PERIAPSIS":"546.434","COUNTRY_CODE":"US","REV_AT_EPOCH":"10965","DECAY_DATE":null,"REF_FRAME":"TEME","TLE_LINE2":"2 46791  53.0543 132.0279 0001106 109.0931 251.0177 15.06404386109655","OBJECT_NAME":"STARLINK-1933","TLE_LINE1":"1 46791U 20074BE  22288.83763030  .00000048  00000-0  22130-4 0  9996","RCS_SIZE":"LARGE","CENTER_NAME":"EARTH","OBJECT_TYPE":"PAYLOAD","LAUNCH_DATE":"2020-10-24","MEAN_MOTION":"15.06404386","GP_ID":"215247186","INCLINATION":"53.0543","MEAN_ELEMENT_THEORY":"SGP4","OBJECT_ID":"2020-074BE","ELEMENT_SET_NO":"999","NORAD_CAT_ID":"46791","BSTAR":"0.00002213000000","MEAN_MOTION_DDOT":"0.0000000000000","EPOCH":"2022-10-15T20:06:11.257920","MEAN_MOTION_DOT":"0.00000048","ARG_OF_PERICENTER":"109.0931","SITE":"AFETR","RA_OF_ASC_NODE":"132.0279","MEAN_ANOMALY":"251.0177","FILE":"3615679","EPHEMERIS_TYPE":"0","SEMIMAJOR_AXIS":"6925.335","ECCENTRICITY":"0.00011060","PERIOD":"95.592","CLASSIFICATION_TYPE":"U","APOAPSIS":"547.966"}];
